[{"OBJECT_NAME":"ALOS (DAICHI)","OBJECT_ID":"2006-002A","EPOCH":"2026-04-22T19:39:15.265152","MEAN_MOTION":14.69930889,"ECCENTRICITY":0.0001853,"INCLINATION":98.1283,"RA_OF_ASC_NODE":68.578,"ARG_OF_PERICENTER":106.9812,"MEAN_ANOMALY":253.1597,"EPHEMERIS_TYPE":0,"CLASSIFICATION_TYPE":"U","NORAD_CAT_ID":28931,"ELEMENT_SET_NO":999,"REV_AT_EPOCH":7996,"BSTAR":0.0001342,"MEAN_MOTION_DOT":7.54e-6,"MEAN_MOTION_DDOT":0},{"OBJECT_NAME":"H-2A R/B","OBJECT_ID":"2006-002B","EPOCH":"2026-04-22T16:10:00.373152","MEAN_MOTION":15.17332631,"ECCENTRICITY":0.0052611,"INCLINATION":98.2503,"RA_OF_ASC_NODE":263.5354,"ARG_OF_PERICENTER":92.2362,"MEAN_ANOMALY":268.4895,"EPHEMERIS_TYPE":0,"CLASSIFICATION_TYPE":"U","NORAD_CAT_ID":28932,"ELEMENT_SET_NO":999,"REV_AT_EPOCH":10110,"BSTAR":0.0002831,"MEAN_MOTION_DOT":5.77e-5,"MEAN_MOTION_DDOT":0},{"OBJECT_NAME":"RESURS-DK 1","OBJECT_ID":"2006-021A","EPOCH":"2026-04-22T08:55:26.446368","MEAN_MOTION":15.12969943,"ECCENTRICITY":0.00029684,"INCLINATION":69.9297,"RA_OF_ASC_NODE":124.0096,"ARG_OF_PERICENTER":347.0832,"MEAN_ANOMALY":13.0257,"EPHEMERIS_TYPE":0,"CLASSIFICATION_TYPE":"U","NORAD_CAT_ID":29228,"ELEMENT_SET_NO":999,"REV_AT_EPOCH":9413,"BSTAR":9.8038687e-5,"MEAN_MOTION_DOT":1.625e-5,"MEAN_MOTION_DDOT":0},{"OBJECT_NAME":"CZ-4B R/B","OBJECT_ID":"2006-046C","EPOCH":"2026-04-22T11:16:49.894752","MEAN_MOTION":15.17320303,"ECCENTRICITY":0.00345606,"INCLINATION":97.5511,"RA_OF_ASC_NODE":157.2533,"ARG_OF_PERICENTER":114.9979,"MEAN_ANOMALY":245.485,"EPHEMERIS_TYPE":0,"CLASSIFICATION_TYPE":"U","NORAD_CAT_ID":29507,"ELEMENT_SET_NO":999,"REV_AT_EPOCH":6668,"BSTAR":0.00018275277,"MEAN_MOTION_DOT":3.629e-5,"MEAN_MOTION_DDOT":0},{"OBJECT_NAME":"CZ-2C R/B","OBJECT_ID":"2007-010B","EPOCH":"2026-04-22T13:06:08.766720","MEAN_MOTION":14.20261212,"ECCENTRICITY":0.00593786,"INCLINATION":98.4031,"RA_OF_ASC_NODE":223.637,"ARG_OF_PERICENTER":165.6405,"MEAN_ANOMALY":194.6477,"EPHEMERIS_TYPE":0,"CLASSIFICATION_TYPE":"U","NORAD_CAT_ID":31114,"ELEMENT_SET_NO":999,"REV_AT_EPOCH":98594,"BSTAR":5.4334575e-5,"MEAN_MOTION_DOT":7.7e-7,"MEAN_MOTION_DDOT":0},{"OBJECT_NAME":"COSMO-SKYMED 1","OBJECT_ID":"2007-023A","EPOCH":"2026-04-22T20:32:10.637952","MEAN_MOTION":14.9682199,"ECCENTRICITY":0.0001127,"INCLINATION":97.8869,"RA_OF_ASC_NODE":304.2515,"ARG_OF_PERICENTER":99.4819,"MEAN_ANOMALY":260.653,"EPHEMERIS_TYPE":0,"CLASSIFICATION_TYPE":"U","NORAD_CAT_ID":31598,"ELEMENT_SET_NO":999,"REV_AT_EPOCH":2151,"BSTAR":0.0001651,"MEAN_MOTION_DOT":1.831e-5,"MEAN_MOTION_DDOT":0},{"OBJECT_NAME":"COSMOS 2428","OBJECT_ID":"2007-029A","EPOCH":"2026-04-22T17:03:31.277088","MEAN_MOTION":14.12946128,"ECCENTRICITY":0.0009222,"INCLINATION":70.9392,"RA_OF_ASC_NODE":110.9453,"ARG_OF_PERICENTER":228.945,"MEAN_ANOMALY":131.0875,"EPHEMERIS_TYPE":0,"CLASSIFICATION_TYPE":"U","NORAD_CAT_ID":31792,"ELEMENT_SET_NO":999,"REV_AT_EPOCH":97031,"BSTAR":-8.5211e-5,"MEAN_MOTION_DOT":-2.07e-6,"MEAN_MOTION_DDOT":0},{"OBJECT_NAME":"SL-16 R/B","OBJECT_ID":"2007-029B","EPOCH":"2026-04-22T15:10:06.170304","MEAN_MOTION":14.14842981,"ECCENTRICITY":0.0002565,"INCLINATION":70.9738,"RA_OF_ASC_NODE":80.0115,"ARG_OF_PERICENTER":268.8005,"MEAN_ANOMALY":264.4132,"EPHEMERIS_TYPE":0,"CLASSIFICATION_TYPE":"U","NORAD_CAT_ID":31793,"ELEMENT_SET_NO":999,"REV_AT_EPOCH":97158,"BSTAR":0.00013935,"MEAN_MOTION_DOT":2.21e-6,"MEAN_MOTION_DDOT":0},{"OBJECT_NAME":"KORONAS-FOTON","OBJECT_ID":"2009-003A","EPOCH":"2026-04-22T13:51:10.125792","MEAN_MOTION":15.44481012,"ECCENTRICITY":0.0010014,"INCLINATION":82.4311,"RA_OF_ASC_NODE":230.2077,"ARG_OF_PERICENTER":3.5357,"MEAN_ANOMALY":356.5959,"EPHEMERIS_TYPE":0,"CLASSIFICATION_TYPE":"U","NORAD_CAT_ID":33504,"ELEMENT_SET_NO":999,"REV_AT_EPOCH":95251,"BSTAR":0.0001958,"MEAN_MOTION_DOT":9.122e-5,"MEAN_MOTION_DDOT":0},{"OBJECT_NAME":"CZ-2C R/B","OBJECT_ID":"2011-030B","EPOCH":"2026-04-22T09:27:58.161888","MEAN_MOTION":14.81348463,"ECCENTRICITY":0.00516564,"INCLINATION":97.8613,"RA_OF_ASC_NODE":68.8091,"ARG_OF_PERICENTER":206.6827,"MEAN_ANOMALY":269.4024,"EPHEMERIS_TYPE":0,"CLASSIFICATION_TYPE":"U","NORAD_CAT_ID":37731,"ELEMENT_SET_NO":999,"REV_AT_EPOCH":79656,"BSTAR":9.0545456e-5,"MEAN_MOTION_DOT":6.68e-6,"MEAN_MOTION_DDOT":0},{"OBJECT_NAME":"H-2A R/B","OBJECT_ID":"2012-025E","EPOCH":"2026-04-22T15:00:59.285088","MEAN_MOTION":14.95426026,"ECCENTRICITY":0.0044354,"INCLINATION":98.4797,"RA_OF_ASC_NODE":83.2206,"ARG_OF_PERICENTER":167.2204,"MEAN_ANOMALY":193.015,"EPHEMERIS_TYPE":0,"CLASSIFICATION_TYPE":"U","NORAD_CAT_ID":38341,"ELEMENT_SET_NO":999,"REV_AT_EPOCH":75478,"BSTAR":9.963e-5,"MEAN_MOTION_DOT":1.052e-5,"MEAN_MOTION_DDOT":0},{"OBJECT_NAME":"SHIJIAN-16 (SJ-16)","OBJECT_ID":"2013-057A","EPOCH":"2026-04-22T20:56:17.015424","MEAN_MOTION":14.92471405,"ECCENTRICITY":0.0016074,"INCLINATION":74.9706,"RA_OF_ASC_NODE":101.4356,"ARG_OF_PERICENTER":359.3034,"MEAN_ANOMALY":0.8129,"EPHEMERIS_TYPE":0,"CLASSIFICATION_TYPE":"U","NORAD_CAT_ID":39358,"ELEMENT_SET_NO":999,"REV_AT_EPOCH":67809,"BSTAR":0.00014565,"MEAN_MOTION_DOT":1.468e-5,"MEAN_MOTION_DDOT":0},{"OBJECT_NAME":"SL-4 R/B","OBJECT_ID":"2014-021B","EPOCH":"2026-04-22T18:09:39.489120","MEAN_MOTION":15.40606617,"ECCENTRICITY":0.009286,"INCLINATION":51.6054,"RA_OF_ASC_NODE":122.0488,"ARG_OF_PERICENTER":264.2086,"MEAN_ANOMALY":94.8306,"EPHEMERIS_TYPE":0,"CLASSIFICATION_TYPE":"U","NORAD_CAT_ID":39679,"ELEMENT_SET_NO":999,"REV_AT_EPOCH":66306,"BSTAR":0.00020109,"MEAN_MOTION_DOT":9.242e-5,"MEAN_MOTION_DDOT":0},{"OBJECT_NAME":"ALOS-2","OBJECT_ID":"2014-029A","EPOCH":"2026-04-22T19:34:20.059680","MEAN_MOTION":14.79465341,"ECCENTRICITY":0.0001819,"INCLINATION":97.9199,"RA_OF_ASC_NODE":210.7714,"ARG_OF_PERICENTER":88.1109,"MEAN_ANOMALY":272.0311,"EPHEMERIS_TYPE":0,"CLASSIFICATION_TYPE":"U","NORAD_CAT_ID":39766,"ELEMENT_SET_NO":999,"REV_AT_EPOCH":64339,"BSTAR":-1.5973e-5,"MEAN_MOTION_DOT":-1.71e-6,"MEAN_MOTION_DDOT":0},{"OBJECT_NAME":"YAOGAN-29","OBJECT_ID":"2015-069A","EPOCH":"2026-04-22T20:28:26.842080","MEAN_MOTION":14.83039996,"ECCENTRICITY":0.0001566,"INCLINATION":98.0077,"RA_OF_ASC_NODE":141.3884,"ARG_OF_PERICENTER":143.6828,"MEAN_ANOMALY":216.4492,"EPHEMERIS_TYPE":0,"CLASSIFICATION_TYPE":"U","NORAD_CAT_ID":41038,"ELEMENT_SET_NO":999,"REV_AT_EPOCH":56242,"BSTAR":7.4601e-5,"MEAN_MOTION_DOT":5.53e-6,"MEAN_MOTION_DDOT":0},{"OBJECT_NAME":"ASTRO-H (HITOMI)","OBJECT_ID":"2016-012A","EPOCH":"2026-04-22T14:07:13.128096","MEAN_MOTION":15.10255599,"ECCENTRICITY":0.0009413,"INCLINATION":30.9993,"RA_OF_ASC_NODE":73.1937,"ARG_OF_PERICENTER":52.9105,"MEAN_ANOMALY":307.2392,"EPHEMERIS_TYPE":0,"CLASSIFICATION_TYPE":"U","NORAD_CAT_ID":41337,"ELEMENT_SET_NO":999,"REV_AT_EPOCH":55887,"BSTAR":0.00012429,"MEAN_MOTION_DOT":2.18e-5,"MEAN_MOTION_DDOT":0},{"OBJECT_NAME":"HXMT (HUIYAN)","OBJECT_ID":"2017-034A","EPOCH":"2026-04-22T17:44:21.332256","MEAN_MOTION":15.17970023,"ECCENTRICITY":0.0030977,"INCLINATION":43.0135,"RA_OF_ASC_NODE":131.668,"ARG_OF_PERICENTER":155.8178,"MEAN_ANOMALY":204.4132,"EPHEMERIS_TYPE":0,"CLASSIFICATION_TYPE":"U","NORAD_CAT_ID":42758,"ELEMENT_SET_NO":999,"REV_AT_EPOCH":48923,"BSTAR":0.00012027,"MEAN_MOTION_DOT":2.272e-5,"MEAN_MOTION_DDOT":0}]
