ALOS (DAICHI)           
1 28931U 06002A   26112.81892668  .00000754  00000+0  13420-3 0  9999
2 28931  98.1283  68.5780 0001853 106.9812 253.1597 14.69930889 79964
H-2A R/B                
1 28932U 06002B   26112.67361543  .00005770  00000+0  28310-3 0  9994
2 28932  98.2503 263.5354 0052611  92.2362 268.4895 15.17332631101107
RESURS-DK 1             
1 29228U 06021A   26112.37183387  .00001625  00000+0  98039-4 0  9990
2 29228  69.9297 124.0096 0002968 347.0832  13.0257 15.12969943 94135
CZ-4B R/B               
1 29507U 06046C   26112.47002193  .00003629  00000+0  18275-3 0  9992
2 29507  97.5511 157.2533 0034560 114.9979 245.4850 15.17320303 66686
CZ-2C R/B               
1 31114U 07010B   26112.54593480  .00000077  00000+0  54335-4 0  9995
2 31114  98.4031 223.6370 0059378 165.6405 194.6477 14.20261212985943
COSMO-SKYMED 1          
1 31598U 07023A   26112.85567868  .00001831  00000+0  16510-3 0  9991
2 31598  97.8869 304.2515 0001127  99.4819 260.6530 14.96821990 21516
COSMOS 2428             
1 31792U 07029A   26112.71077867 -.00000207  00000+0 -85211-4 0  9996
2 31792  70.9392 110.9453 0009222 228.9450 131.0875 14.12946128970315
SL-16 R/B               
1 31793U 07029B   26112.63201586  .00000221  00000+0  13935-3 0  9992
2 31793  70.9738  80.0115 0002565 268.8005 264.4132 14.14842981971585
KORONAS-FOTON           
1 33504U 09003A   26112.57720053  .00009122  00000+0  19580-3 0  9997
2 33504  82.4311 230.2077 0010014   3.5357 356.5959 15.44481012952510
CZ-2C R/B               
1 37731U 11030B   26112.39442317  .00000668  00000+0  90545-4 0  9997
2 37731  97.8613  68.8091 0051656 206.6827 269.4024 14.81348463796565
H-2A R/B                
1 38341U 12025E   26112.62568617  .00001052  00000+0  99630-4 0  9990
2 38341  98.4797  83.2206 0044354 167.2204 193.0150 14.95426026754787
SHIJIAN-16 (SJ-16)      
1 39358U 13057A   26112.87241916  .00001468  00000+0  14565-3 0  9996
2 39358  74.9706 101.4356 0016074 359.3034   0.8129 14.92471405678095
SL-4 R/B                
1 39679U 14021B   26112.75670705  .00009242  00000+0  20109-3 0  9992
2 39679  51.6054 122.0488 0092860 264.2086  94.8306 15.40606617663062
ALOS-2                  
1 39766U 14029A   26112.81550995 -.00000171  00000+0 -15973-4 0  9990
2 39766  97.9199 210.7714 0001819  88.1109 272.0311 14.79465341643390
YAOGAN-29               
1 41038U 15069A   26112.85308845  .00000553  00000+0  74601-4 0  9994
2 41038  98.0077 141.3884 0001566 143.6828 216.4492 14.83039996562427
ASTRO-H (HITOMI)        
1 41337U 16012A   26112.58834639  .00002180  00000+0  12429-3 0  9997
2 41337  30.9993  73.1937 0009413  52.9105 307.2392 15.10255599558873
HXMT (HUIYAN)           
1 42758U 17034A   26112.73913579  .00002272  00000+0  12027-3 0  9994
2 42758  43.0135 131.6680 0030977 155.8178 204.4132 15.17970023489237
